ONEWEB-0584             
1 54651U 22166K   23068.91667824  .00000016  00000+0  00000+0 0  9995
2 54651  87.3508 122.9641 0007248 297.5528 224.3154 13.80323669 13969
ONEWEB-0585             
1 54652U 22166L   23068.33334491  .00000016  00000+0  00000+0 0  9993
2 54652  87.3483 123.1315 0006954 305.9904 284.1349 13.83276617 13893
ONEWEB-0586             
1 54653U 22166M   23068.91667824 -.01010968  00000+0 -96999+0 0  9999
2 54653  87.3611 122.9999 0006008 326.0299 328.1028 13.83607838 13978
ONEWEB-0587             
1 54654U 22166N   23068.91667824  .00010135  00000+0  79717-2 0  9995
2 54654  87.3743 122.9570 0009080 292.4706 119.9506 13.91636551 13983
ONEWEB-0589             
1 54655U 22166P   23068.91667824  .00000016  00000+0  00000+0 0  9999
2 54655  87.3844 122.9555 0011288 310.8136  31.4444 13.84146160 13987
ONEWEB-0590             
1 54656U 22166Q   23068.91667824  .00000016  00000+0  00000+0 0  9990
2 54656  87.3659 122.9521 0012194 304.0433 128.0454 13.80958112 13974
ONEWEB-0591             
1 54657U 22166R   23068.91667824 -.01021206  00000+0 -92626+0 0  9993
2 54657  87.3844 122.9606 0010795 309.6587 201.7800 13.86922781 13985
ONEWEB-0592             
1 54658U 22166S   23068.91667824 -.00675547  00000+0 -72047+0 0  9991
2 54658  87.3124 123.1037 0006625 321.9952 354.3838 13.77069909 13865
ONEWEB-0593             
1 54659U 22166T   23068.91667824 -.01039500  00000+0 -94766+0 0  9998
2 54659  87.3855 122.9113 0008478 302.5027 158.4731 13.86696122 13986
ONEWEB-0594             
1 54660U 22166U   23068.91667824  .00009093  00000+0  77424-2 0  9996
2 54660  87.3407 122.8616 0011312 301.0286 153.7928 13.87059557 13982
ONEWEB-0595             
1 54661U 22166V   23068.91667824  .00000016  00000+0  00000+0 0  9996
2 54661  87.3817 122.9502 0007733 295.1575 355.9495 13.83154946 13988
ONEWEB-0596             
1 54662U 22166W   23068.91667824 -.01033573  00000+0 -96649+0 0  9998
2 54662  87.3823 122.9640 0006091 298.5008 192.9133 13.85196113 13974
ONEWEB-0597             
1 54663U 22166X   23068.91667824 -.01020168  00000+0 -95896+0 0  9998
2 54663  87.3842 122.9491 0009892 308.7963  14.9771 13.84830582 13982
ONEWEB-0600             
1 54664U 22166Y   23068.91667824  .00000016  00000+0  00000+0 0  9999
2 54664  87.3643 122.9470 0010258 305.0495  34.6241 13.80548110 13976
ONEWEB-0601             
1 54665U 22166Z   23068.00001157 -.00698458  00000+0 -45775+0 0  9994
2 54665  87.3170 122.7858 0010191 305.4045 270.0545 14.04789740 13898
ONEWEB-0602             
1 54666U 22166AA  23068.00001157 -.00988469  00000+0 -86982+0 0  9994
2 54666  87.3555 123.1136 0009124 301.2549 335.9215 13.88588620 13864
ONEWEB-0603             
1 54667U 22166AB  23068.91667824 -.00711357  00000+0 -67536+0 0  9998
2 54667  87.2924 123.3820 0007032 330.7471 263.5029 13.83652893 13894
ONEWEB-0604             
1 54668U 22166AC  23068.91667824 -.00652215  00000+0 -66249+0 0  9996
2 54668  87.3072 123.1689 0006482 320.9328 115.9917 13.79873885 13865
ONEWEB-0605             
1 54669U 22166AD  23068.91667824 -.00826816  00000+0 -66954+0 0  9990
2 54669  87.3087 123.4954 0007507 326.3088  98.7135 13.93347964 13918
ONEWEB-0606             
1 54670U 22166AE  23068.91667824 -.00641189  00000+0 -60174+0 0  9998
2 54670  87.2754 122.8687 0006164 334.5069 255.0130 13.84502419 13892
ONEWEB-0607             
1 54671U 22166AF  23068.91667824 -.00781099  00000+0 -61849+0 0  9994
2 54671  87.3263 123.3031 0005289 311.4927 203.2958 13.94463315 13932
ONEWEB-0608             
1 54672U 22166AG  23068.91667824 -.00847499  00000+0 -68733+0 0  9991
2 54672  87.3198 123.4446 0010482 306.3601   6.7742 13.93328504 13952
ONEWEB-0610             
1 54673U 22166AH  23068.91667824 -.00657767  00000+0 -66581+0 0  9998
2 54673  87.3232 123.3105 0009477 292.9304 104.6557 13.80095262 13876
ONEWEB-0611             
1 54674U 22166AJ  23068.91667824 -.00697802  00000+0 -70699+0 0  9998
2 54674  87.3239 123.2952 0010396 298.3706 170.9582 13.80218613 13872
ONEWEB-0612             
1 54675U 22166AK  23068.91667824 -.00622186  00000+0 -63996+0 0  9994
2 54675  87.3420 123.1416 0005532 336.5028 228.1131 13.78993390 13861
ONEWEB-0615             
1 54676U 22166AL  23068.91667824 -.00698811  00000+0 -71400+0 0  9992
2 54676  87.3183 123.2835 0008958 300.0492 260.4153 13.79728515 13870
ONEWEB-0655             
1 54677U 22166AM  23068.91667824 -.00671349  00000+0 -69011+0 0  9995
2 54677  87.3122 123.2797 0009516 303.2661  72.4550 13.79240147 13866
ONEWEB-0659             
1 54678U 22166AN  23068.91667824 -.01016475  00000+0 -96034+0 0  9995
2 54678  87.3821 122.9655 0007861 302.4263 233.5758 13.84528829 13987
ONEWEB-0685             
1 54679U 22166AP  23068.91667824 -.00610957  00000+0 -67507+0 0  9993
2 54679  87.2848 123.3181 0004336 330.5469  76.9120 13.74654065 13847
ONEWEB-0712             
1 54680U 22166AQ  23068.18284387  .00003346  00000+0  49636-3 0  9996
2 54680  86.5621 119.0187 0009974 291.1688  68.8464 14.74777414 14124
ONEWEB-0714             
1 54681U 22166AR  23068.91667824  .00000016  00000+0  00000+0 0  9998
2 54681  87.3853 122.9540 0010242 312.0781  27.2457 13.83858066 13980
ONEWEB-0532             
1 55140U 23004A   23067.96710212  .00002175  00000+0  39533-3 0  9990
2 55140  86.6194 260.6947 0012983  22.7001 337.4784 14.65682358  8710
ONEWEB-0533             
1 55141U 23004B   23068.24154961  .00001249  00000+0  22468-3 0  9996
2 55141  86.6193 260.5825 0014538  30.3733 329.8320 14.65788670  8758
ONEWEB-0541             
1 55142U 23004C   23068.91667824 -.00950766  00000+0 -35157+0 0  9992
2 55142  86.9810 261.6651 0011618  25.0842 300.3924 14.35561033  8781
ONEWEB-0543             
1 55143U 23004D   23068.81584291  .00001800  00000+0  32649-3 0  9999
2 55143  86.6201 260.4032 0011022  29.9687 330.2155 14.65698216  8833
ONEWEB-0544             
1 55144U 23004E   23068.27342162  .00000289  00000+0  48679-4 0  9990
2 55144  86.6220 260.5219 0014521  29.9211 330.2830 14.65686978  8767
ONEWEB-0560             
1 55145U 23004F   23068.81672066  .00001652  00000+0  29900-3 0  9990
2 55145  86.6244 260.3046 0015197  28.1846 332.0187 14.65696964  8845
ONEWEB-0565             
1 55146U 23004G   23068.78725060  .00007376  00000+0  13443-2 0  9993
2 55146  86.6221 260.2600 0015734  31.0891 329.1250 14.65855556  8848
ONEWEB-0567             
1 55147U 23004H   23068.79778045  .00001772  00000+0  32117-3 0  9990
2 55147  86.6221 260.2669 0015197  30.9843 329.2264 14.65682473  8844
ONEWEB-0569             
1 55148U 23004J   23068.77502406  .00001932  00000+0  35064-3 0  9997
2 55148  86.6200 260.3418 0013476  23.5619 336.6209 14.65686036  8831
ONEWEB-0570             
1 55149U 23004K   23068.77010408  .00001478  00000+0  26614-3 0  9990
2 55149  86.6196 260.3372 0013254  28.5177 331.6759 14.65863470  8837
ONEWEB-0571             
1 55150U 23004L   23068.53611982  .00001408  00000+0  25426-3 0  9993
2 55150  86.6241 260.4109 0015667  32.8767 327.3418 14.65702763  8800
ONEWEB-0572             
1 55151U 23004M   23068.78429623  .00002738  00000+0  49893-3 0  9991
2 55151  86.6203 260.3644 0013185  27.6929 332.4984 14.65679675  8830
ONEWEB-0573             
1 55152U 23004N   23068.77610412  .00002006  00000+0  36422-3 0  9991
2 55152  86.6209 260.3547 0013659  27.3028 332.8901 14.65685961  8830
ONEWEB-0588             
1 55153U 23004P   23068.82158701  .00001865  00000+0  33863-3 0  9994
2 55153  86.6203 260.4098 0009420  33.6730 326.5080 14.65689584  8831
ONEWEB-0598             
1 55154U 23004Q   23068.91667824 -.00908019  00000+0 -44555+0 0  9991
2 55154  87.0835 262.0578 0011592  31.5793  19.3460 14.20772605  8756
ONEWEB-0599             
1 55155U 23004R   23068.57461713  .00001254  00000+0  22619-3 0  9997
2 55155  86.6213 260.4459 0013437  26.7624 333.4280 14.65667667  8807
ONEWEB-0614             
1 55156U 23004S   23068.91667824 -.00967277  00000+0 -51735+0 0  9992
2 55156  87.0408 262.0528 0013521  43.5363 277.7436 14.16355108  8752
ONEWEB-0616             
1 55157U 23004T   23068.23356390  .00001586  00000+0  28715-3 0  9997
2 55157  86.6185 260.5673 0012718  27.7443 332.4446 14.65683243  8752
ONEWEB-0617             
1 55158U 23004U   23068.25001157 -.01013863  00000+0 -48515+0 0  9998
2 55158  87.0733 262.3316 0009299  21.8583 137.4369 14.22463583  8653
ONEWEB-0618             
1 55159U 23004V   23068.80241504  .00003602  00000+0  65763-3 0  9997
2 55159  86.6214 260.2688 0011898  32.2269 327.9669 14.65679448  8843
ONEWEB-0619             
1 55160U 23004W   23068.26489474  .00000761  00000+0  13533-3 0  9990
2 55160  86.6208 260.5053 0014288  29.1712 331.0297 14.65735432  8761
ONEWEB-0620             
1 55161U 23004X   23068.91667824 -.01056155  00000+0 -57828+0 0  9992
2 55161  87.0453 262.0024 0009785  35.0123 338.3971 14.15409904  8757
ONEWEB-0621             
1 55162U 23004Y   23068.91667824  .00000016  00000+0  00000+0 0  9995
2 55162  87.3365 263.6655 0008671  22.1767 119.6562 13.76095738  8628
ONEWEB-0622             
1 55163U 23004Z   23068.08334491 -.00967124  00000+0 -45452+0 0  9999
2 55163  87.0632 262.3968 0011577  52.6390 294.4598 14.23245774  8637
ONEWEB-0623             
1 55164U 23004AA  23068.78211882  .00001424  00000+0  25731-3 0  9997
2 55164  86.6219 260.2441 0016027  30.0446 330.1684 14.65667348  8842
ONEWEB-0624             
1 55165U 23004AB  23068.76866526 -.00003679  00000+0 -67822-3 0  9990
2 55165  86.6243 260.2473 0015970  33.7925 326.4303 14.65840553  8840
ONEWEB-0625             
1 55166U 23004AC  23067.81672328  .00001827  00000+0  33145-3 0  9993
2 55166  86.6195 260.7293 0013174  26.2860 333.9019 14.65669603  8696
ONEWEB-0626             
1 55167U 23004AD  23068.76561642 -.00002970  00000+0 -55006-3 0  9997
2 55167  86.6226 260.2281 0015650  36.9971 323.2318 14.65705760  8842
